CORAL                   
1 67684U 98067YA  26089.05913556  .00109870  00000+0  14285-2 0  9996
2 67684  51.6303 329.6801 0012880 249.3222 110.6389 15.57840895  7965
GXIBA-1                 
1 67685U 98067YB  26089.05572195  .00057636  00000+0  87009-3 0  9994
2 67685  51.6323 330.4074 0012014 256.8362 103.1288 15.54098207  7950
UITMSAT-2               
1 67686U 98067YC  26089.04035350  .00070850  00000+0  10299-2 0  9990
2 67686  51.6316 330.3073 0009168 228.7087 131.3115 15.55077953  7957
HMU-SAT2                
1 67687U 98067YD  26089.06085105  .00055756  00000+0  85130-3 0  9991
2 67687  51.6327 330.4447 0008690 231.6398 128.3812 15.53840190  7873
LEOPARD                 
1 67688U 98067YE  26088.91879910  .00064720  00000+0  95831-3 0  9990
2 67688  51.6326 330.9957 0008837 228.8884 131.1345 15.54617115  7856
CREW DRAGON 12          
1 67796U 26031A   26089.16515939  .00012299  00000+0  23377-3 0  9998
2 67796  51.6344 331.1363 0006182 249.8594 110.1729 15.48649502559462
PROGRESS-MS 33          
1 68319U 26058A   26089.16515939  .00012299  00000+0  23377-3 0  9999
2 68319  51.6344 331.1363 0006182 249.8594 110.1729 15.48649502   971
